BEIJING 1               
1 28890U 05043A   20109.59090641  .00000007  00000-0  10741-4 0  9999
2 28890  98.0189 240.1504 0016376 128.4382 231.8293 14.61286624771789
HJ-1A                   
1 33320U 08041A   20109.45049807  .00000037  00000-0  12399-4 0  9991
2 33320  97.7936 163.4721 0025446 266.5512  93.2790 14.77057393625746
HJ-1B                   
1 33321U 08041B   20109.45262855  .00000078  00000-0  18170-4 0  9990
2 33321  97.8017 165.6991 0033519 294.7465  65.0262 14.77217603625744
YAOGAN 4                
1 33446U 08061A   20109.45729901  .00000055  00000-0  14750-4 0  9995
2 33446  97.7206  67.5768 0016325 169.7528 190.4018 14.77020788612979
DEIMOS-1                
1 35681U 09041A   20109.59882973  .00000060  00000-0  17059-4 0  9992
2 35681  97.8203 345.4711 0000686 170.9078 189.2158 14.71829298575586
UK-DMC 2                
1 35683U 09041C   20109.53000951 -.00000030  00000-0  24915-5 0  9994
2 35683  97.7066 315.3101 0001141  79.7228 280.4129 14.71140895575371
RISAT 1                 
1 38248U 12017A   20109.54552835  .00000180  00000-0  14967-4 0  9995
2 38248  97.5682 119.5020 0005888  90.7693 269.4211 15.10042954439579
DMC3-FM1                
1 40715U 15032A   20109.56858832  .00000006  00000-0  85354-5 0  9991
2 40715  97.9391   4.5252 0017092  58.4849 301.8032 14.73684885256837
DMC3-FM2                
1 40716U 15032B   20109.59075371  .00000010  00000-0  91340-5 0  9991
2 40716  97.9419   4.8852 0014399  67.0082 293.2650 14.73690214256844
DMC3-FM3                
1 40717U 15032C   20109.54570753 -.00000002  00000-0  73874-5 0  9995
2 40717  97.9428   5.5540 0018060  59.8340 300.4657 14.73696143256836
